GLOBALSTAR M069         
1 31573U 07020C   26165.02978078 -.00000067  00000+0  23458-3 0  9997
2 31573  52.0032 261.0641 0002405 141.2525  29.3939 12.23471008878415
GLOBALSTAR M072         
1 31574U 07020D   26165.10441311 -.00000104  00000+0 -27730-3 0  9992
2 31574  51.9921 108.4521 0001405 323.9216  49.6867 11.91658465874618
GLOBALSTAR M066         
1 32265U 07048C   26164.97796816 -.00000143  00000+0 -41048-3 0  9998
2 32265  51.9600  67.1246 0005436  37.2256 335.0313 12.30387931859838
GLOBALSTAR M079         
1 37188U 10054A   26165.11673721 -.00000116  00000+0 -66588-4 0  9991
2 37188  52.0029 118.0165 0000642  16.9430 356.4067 12.62266081722167
GLOBALSTAR M074         
1 37189U 10054B   26165.14297698 -.00000127  00000+0 -13189-3 0  9990
2 37189  52.0004 117.2017 0000478  48.3847 324.4683 12.62268371722776
GLOBALSTAR M076         
1 37190U 10054C   26165.16941422 -.00000113  00000+0 -50604-4 0  9994
2 37190  52.0023 117.3241 0000669  38.3904 334.8007 12.62261778722492
GLOBALSTAR M077         
1 37191U 10054D   26165.30300435 -.00000057  00000+0  38778-3 0  9997
2 37191  51.9923 186.6169 0002778 167.4484 277.9236 11.67547757720800
GLOBALSTAR M075         
1 37192U 10054E   26165.28151027 -.00000106  00000+0 -10128-4 0  9992
2 37192  51.9920 159.0398 0000094  20.8345  81.8269 12.62267395721579
GLOBALSTAR M073         
1 37193U 10054F   26165.02445609 -.00000113  00000+0 -52291-4 0  9992
2 37193  52.0066  73.9195 0000867  41.8960 330.6527 12.62262106723531
GLOBALSTAR M083         
1 37739U 11033A   26165.31002924 -.00000092  00000+0  67229-4 0  9999
2 37739  51.9873  21.2829 0000905  61.7603 110.5543 12.62263032692581
GLOBALSTAR M088         
1 37740U 11033B   26165.12541589 -.00000097  00000+0  39585-4 0  9994
2 37740  52.0223 288.2676 0000755 121.7532  49.5467 12.62268653688103
GLOBALSTAR M091         
1 37741U 11033C   26164.97984812 -.00000080  00000+0  13032-3 0  9997
2 37741  51.9992 251.6807 0000375 146.1422  24.3689 12.62263849688875
GLOBALSTAR M085         
1 37742U 11033D   26165.26292030 -.00000075  00000+0  15957-3 0  9997
2 37742  52.0104 202.1078 0000107 245.2369 192.3113 12.62264101689420
GLOBALSTAR M081         
1 37743U 11033E   26165.28978777 -.00000076  00000+0  15563-3 0  9993
2 37743  51.9937 204.4657 0000159 118.8756 320.4425 12.62264951689572
GLOBALSTAR M089         
1 37744U 11033F   26165.17106796 -.00000096  00000+0  45037-4 0  9998
2 37744  51.9904 158.9854 0000343  91.7326 348.6914 12.62267209690404
GLOBALSTAR M084         
1 38040U 11080A   26165.32009259 -.00000098  00000+0  32961-4 0  9997
2 38040  52.0026  26.0105 0001071  80.7208 257.1658 12.62267502668399
GLOBALSTAR M080         
1 38041U 11080B   26164.92308514 -.00000094  00000+0  55935-4 0  9991
2 38041  52.0077  28.9364 0000352  70.3685  32.5991 12.62269311668473
GLOBALSTAR M082         
1 38042U 11080C   26165.27005753 -.00000096  00000+0  44639-4 0  9991
2 38042  52.0095 343.3804 0000555  91.6356  78.9015 12.62263712669227
GLOBALSTAR M092         
1 38043U 11080D   26165.05079023 -.00000109  00000+0 -29709-4 0  9996
2 38043  52.0093  74.4446 0000643  57.7646 314.8823 12.62266943667656
GLOBALSTAR M090         
1 38044U 11080E   26165.21764105 -.00000100  00000+0  22895-4 0  9996
2 38044  52.0142 337.4953 0000804  87.8027  83.3926 12.62269037669339
GLOBALSTAR M086         
1 38045U 11080F   26165.23955601 -.00000092  00000+0  68256-4 0  9993
2 38045  51.9915 337.3632 0001666  62.8638 108.7512 12.62286687669284
GLOBALSTAR M097         
1 39072U 13005A   26164.91628597 -.00000099  00000+0  28009-4 0  9997
2 39072  52.0048 253.2938 0000349 127.0315 233.0583 12.62247200616495
GLOBALSTAR M093         
1 39073U 13005B   26164.96873323 -.00000077  00000+0  14868-3 0  9995
2 39073  52.0100 246.4796 0000226 100.7670 259.3222 12.62265864616450
GLOBALSTAR M094         
1 39074U 13005C   26165.28537350 -.00000107  00000+0 -16249-4 0  9990
2 39074  51.9926 159.6343 0000338 354.0729   6.0134 12.62268585618107
GLOBALSTAR M096         
1 39075U 13005D   26165.21965943 -.00000072  00000+0  17926-3 0  9999
2 39075  52.0054 208.6347 0000065 200.7667 159.3197 12.62265599617018
GLOBALSTAR M078         
1 39076U 13005E   26164.63836867 -.00000189  00000+0 -47637-3 0  9999
2 39076  51.9890 294.4173 0000529 214.5079 145.5753 12.62257981615569
GLOBALSTAR M095         
1 39077U 13005F   26165.06105048 -.00000103  00000+0  44730-5 0  9996
2 39077  52.0094 290.7305 0000287 127.8015 232.2878 12.62263358615478
GLOBALSTAR M087         
1 52888U 22064A   26164.99512063 -.00000107  00000+0 -15571-4 0  9991
2 52888  52.0004  72.1703 0000700  31.1522 328.9386 12.62269004190736
